[
    {
        "Altitude(m)": 604234.5904874642,
        "Argument of Periapsis(deg)": 0.0,
        "Eccentricity": 0.0,
        "Inclination(deg)": 60.0,
        "Latitude(deg)": 14.117128882679562,
        "Longitude(deg)": -58.27268174490072,
        "Mean Anomaly(deg)": -196.36359999999996,
        "RAAN(deg)": 229.99999999999997,
        "Satellite Name": "Test1 1022",
        "Satellite Number": 1022,
        "Semi-Major Axis(m)": 6980739.136638005,
        "Time(s)": 0
    },
    {
        "Altitude(m)": 604223.419742718,
        "Argument of Periapsis(deg)": 0.00010418945913296404,
        "Eccentricity": 0.0,
        "Inclination(deg)": 60.0,
        "Latitude(deg)": 13.582265429854731,
        "Longitude(deg)": -57.98577233908759,
        "Mean Anomaly(deg)": -195.7434938545382,
        "RAAN(deg)": 229.99957995086024,
        "Satellite Name": "Test1 1022",
        "Satellite Number": 1022,
        "Semi-Major Axis(m)": 6980739.136638005,
        "Time(s)": 10
    },
    {
        "Altitude(m)": 604215.2042659739,
        "Argument of Periapsis(deg)": 0.0002083789182659281,
        "Eccentricity": 0.0,
        "Inclination(deg)": 60.0,
        "Latitude(deg)": 13.046953841588849,
        "Longitude(deg)": -57.7003334352603,
        "Mean Anomaly(deg)": -195.12338770907633,
        "RAAN(deg)": 229.99915990172047,
        "Satellite Name": "Test1 1022",
        "Satellite Number": 1022,
        "Semi-Major Axis(m)": 6980739.136638005,
        "Time(s)": 20
    },
    {
        "Altitude(m)": 604209.9719489759,
        "Argument of Periapsis(deg)": 0.00031256837739889213,
        "Eccentricity": 0.0,
        "Inclination(deg)": 60.0,
        "Latitude(deg)": 12.511214506553815,
        "Longitude(deg)": -57.41630032014497,
        "Mean Anomaly(deg)": -194.5032815636145,
        "RAAN(deg)": 229.99873985258077,
        "Satellite Name": "Test1 1022",
        "Satellite Number": 1022,
        "Semi-Major Axis(m)": 6980739.136638005,
        "Time(s)": 30
    },
    {
        "Altitude(m)": 604207.7493394169,
        "Argument of Periapsis(deg)": 0.0004167578365318562,
        "Eccentricity": 0.0,
        "Inclination(deg)": 60.0,
        "Latitude(deg)": 11.97506753746728,
        "Longitude(deg)": -57.133608625837255,
        "Mean Anomaly(deg)": -193.88317541815266,
        "RAAN(deg)": 229.998319803441,
        "Satellite Name": "Test1 1022",
        "Satellite Number": 1022,
        "Semi-Major Axis(m)": 6980739.136638005,
        "Time(s)": 40
    },
    {
        "Altitude(m)": 604208.5616251557,
        "Argument of Periapsis(deg)": 0.0005209472956648203,
        "Eccentricity": 0.0,
        "Inclination(deg)": 60.0,
        "Latitude(deg)": 11.438532785039515,
        "Longitude(deg)": -56.852195298085505,
        "Mean Anomaly(deg)": -193.2630692726908,
        "RAAN(deg)": 229.99789975430127,
        "Satellite Name": "Test1 1022",
        "Satellite Number": 1022,
        "Semi-Major Axis(m)": 6980739.136638005,
        "Time(s)": 50
    },
    {
        "Altitude(m)": 604212.4326190917,
        "Argument of Periapsis(deg)": 0.0006251367547977843,
        "Eccentricity": 0.0,
        "Inclination(deg)": 60.0,
        "Latitude(deg)": 10.901629851564463,
        "Longitude(deg)": -56.57199805238969,
        "Mean Anomaly(deg)": -192.64296312722897,
        "RAAN(deg)": 229.9974797051615,
        "Satellite Name": "Test1 1022",
        "Satellite Number": 1022,
        "Semi-Major Axis(m)": 6980739.136638005,
        "Time(s)": 60
    },
    {
        "Altitude(m)": 604219.3847446785,
        "Argument of Periapsis(deg)": 0.0007293262139307483,
        "Eccentricity": 0.0,
        "Inclination(deg)": 60.0,
        "Latitude(deg)": 10.364378104173321,
        "Longitude(deg)": -56.29295483075806,
        "Mean Anomaly(deg)": -192.02285698176718,
        "RAAN(deg)": 229.9970596560218,
        "Satellite Name": "Test1 1022",
        "Satellite Number": 1022,
        "Semi-Major Axis(m)": 6980739.136638005,
        "Time(s)": 70
    },
    {
        "Altitude(m)": 604229.4390221374,
        "Argument of Periapsis(deg)": 0.0008335156730637124,
        "Eccentricity": 0.0,
        "Inclination(deg)": 60.0,
        "Latitude(deg)": 9.826796687767468,
        "Longitude(deg)": -56.01500477196639,
        "Mean Anomaly(deg)": -191.40275083630533,
        "RAAN(deg)": 229.99663960688204,
        "Satellite Name": "Test1 1022",
        "Satellite Number": 1022,
        "Semi-Major Axis(m)": 6980739.136638005,
        "Time(s)": 80
    },
    {
        "Altitude(m)": 604242.615055346,
        "Argument of Periapsis(deg)": 0.0009377051321966765,
        "Eccentricity": 0.0,
        "Inclination(deg)": 60.0,
        "Latitude(deg)": 9.288904537652115,
        "Longitude(deg)": -55.73808766954401,
        "Mean Anomaly(deg)": -190.7826446908435,
        "RAAN(deg)": 229.9962195577423,
        "Satellite Name": "Test1 1022",
        "Satellite Number": 1022,
        "Semi-Major Axis(m)": 6980739.136638005,
        "Time(s)": 90
    },
    {
        "Altitude(m)": 604258.9310193927,
        "Argument of Periapsis(deg)": 0.0010418945913296407,
        "Eccentricity": 0.0,
        "Inclination(deg)": 60.0,
        "Latitude(deg)": 8.750720391885526,
        "Longitude(deg)": -55.462143430329455,
        "Mean Anomaly(deg)": -190.16253854538172,
        "RAAN(deg)": 229.99579950860254,
        "Satellite Name": "Test1 1022",
        "Satellite Number": 1022,
        "Semi-Major Axis(m)": 6980739.136638005,
        "Time(s)": 100
    },
    {
        "Altitude(m)": 604278.4036488513,
        "Argument of Periapsis(deg)": 0.0011460840504626045,
        "Eccentricity": 0.0,
        "Inclination(deg)": 60.0,
        "Latitude(deg)": 8.212262803361664,
        "Longitude(deg)": -55.18711304644011,
        "Mean Anomaly(deg)": -189.54243239991987,
        "RAAN(deg)": 229.99537945946284,
        "Satellite Name": "Test1 1022",
        "Satellite Number": 1022,
        "Semi-Major Axis(m)": 6980739.136638005,
        "Time(s)": 110
    },
    {
        "Altitude(m)": 604301.0482267401,
        "Argument of Periapsis(deg)": 0.0012502735095955685,
        "Eccentricity": 0.0,
        "Inclination(deg)": 60.0,
        "Latitude(deg)": 7.673550151643688,
        "Longitude(deg)": -54.9129380548792,
        "Mean Anomaly(deg)": -188.92232625445806,
        "RAAN(deg)": 229.99495941032308,
        "Satellite Name": "Test1 1022",
        "Satellite Number": 1022,
        "Semi-Major Axis(m)": 6980739.136638005,
        "Time(s)": 120
    },
    {
        "Altitude(m)": 604326.8785741943,
        "Argument of Periapsis(deg)": 0.0013544629687285324,
        "Eccentricity": 0.0,
        "Inclination(deg)": 60.0,
        "Latitude(deg)": 7.134600654564549,
        "Longitude(deg)": -54.63955999762344,
        "Mean Anomaly(deg)": -188.3022201089962,
        "RAAN(deg)": 229.99453936118334,
        "Satellite Name": "Test1 1022",
        "Satellite Number": 1022,
        "Semi-Major Axis(m)": 6980739.136638005,
        "Time(s)": 130
    },
    {
        "Altitude(m)": 604355.907040861,
        "Argument of Periapsis(deg)": 0.0014586524278614966,
        "Eccentricity": 0.0,
        "Inclination(deg)": 60.0,
        "Latitude(deg)": 6.595432379609134,
        "Longitude(deg)": -54.36692139503533,
        "Mean Anomaly(deg)": -187.68211396353433,
        "RAAN(deg)": 229.99411931204358,
        "Satellite Name": "Test1 1022",
        "Satellite Number": 1022,
        "Semi-Major Axis(m)": 6980739.136638005,
        "Time(s)": 140
    },
    {
        "Altitude(m)": 604388.1444959915,
        "Argument of Periapsis(deg)": 0.0015628418869944607,
        "Eccentricity": 0.0,
        "Inclination(deg)": 60.0,
        "Latitude(deg)": 6.056063255095979,
        "Longitude(deg)": -54.09496520682386,
        "Mean Anomaly(deg)": -187.06200781807254,
        "RAAN(deg)": 229.99369926290387,
        "Satellite Name": "Test1 1022",
        "Satellite Number": 1022,
        "Semi-Major Axis(m)": 6980739.136638005,
        "Time(s)": 150
    },
    {
        "Altitude(m)": 604423.6003202836,
        "Argument of Periapsis(deg)": 0.0016670313461274247,
        "Eccentricity": 0.0,
        "Inclination(deg)": 60.0,
        "Latitude(deg)": 5.516511081172745,
        "Longitude(deg)": -53.8236342933972,
        "Mean Anomaly(deg)": -186.4419016726107,
        "RAAN(deg)": 229.99327921376414,
        "Satellite Name": "Test1 1022",
        "Satellite Number": 1022,
        "Semi-Major Axis(m)": 6980739.136638005,
        "Time(s)": 160
    },
    {
        "Altitude(m)": 604462.2823984271,
        "Argument of Periapsis(deg)": 0.0017712208052603888,
        "Eccentricity": 0.0,
        "Inclination(deg)": 60.0,
        "Latitude(deg)": 4.976793540639537,
        "Longitude(deg)": -53.5528723904507,
        "Mean Anomaly(deg)": -185.82179552714885,
        "RAAN(deg)": 229.99285916462438,
        "Satellite Name": "Test1 1022",
        "Satellite Number": 1022,
        "Semi-Major Axis(m)": 6980739.136638005,
        "Time(s)": 170
    },
    {
        "Altitude(m)": 604504.1971123997,
        "Argument of Periapsis(deg)": 0.001875410264393353,
        "Eccentricity": 0.0,
        "Inclination(deg)": 60.0,
        "Latitude(deg)": 4.436928209616886,
        "Longitude(deg)": -53.28262357101525,
        "Mean Anomaly(deg)": -185.20168938168703,
        "RAAN(deg)": 229.99243911548461,
        "Satellite Name": "Test1 1022",
        "Satellite Number": 1022,
        "Semi-Major Axis(m)": 6980739.136638005,
        "Time(s)": 180
    },
    {
        "Altitude(m)": 604549.3493355056,
        "Argument of Periapsis(deg)": 0.0019795997235263173,
        "Eccentricity": 0.0,
        "Inclination(deg)": 60.0,
        "Latitude(deg)": 3.896932568071918,
        "Longitude(deg)": -53.01283170780866,
        "Mean Anomaly(deg)": -184.58158323622519,
        "RAAN(deg)": 229.9920190663449,
        "Satellite Name": "Test1 1022",
        "Satellite Number": 1022,
        "Semi-Major Axis(m)": 6980739.136638005,
        "Time(s)": 190
    }
]